ORBCOMM FM103           
1 40091U 14040F   25303.63946331  .00001051  00000+0  26081-3 0  9997
2 40091  47.0044  98.0091 0002025 197.2189 162.8628 14.58417125583870
ORBCOMM FM114           
1 41179U 15081A   25302.90373419  .00000969  00000+0  24312-3 0  9993
2 41179  47.0044  10.4627 0002954 250.6894 109.3672 14.58455494524139
ORBCOMM FM119           
1 41180U 15081B   25303.24034329  .00000995  00000+0  24912-3 0  9992
2 41180  47.0005 278.2212 0001929 298.0814  61.9876 14.58392601525434
ORBCOMM FM105           
1 41181U 15081C   25303.02802552  .00000432  00000+0  16638-3 0  9992
2 41181  47.0019 297.3204 0002207 229.6713 130.3974 14.45346830520255
ORBCOMM FM110           
1 41182U 15081D   25302.89509646  .00001452  00000+0  34584-3 0  9998
2 41182  47.0034  10.0270 0001412 112.5855 247.5181 14.58497709524004
ORBCOMM FM118           
1 41183U 15081E   25303.75043457  .00001218  00000+0  29631-3 0  9995
2 41183  47.0056   6.2614 0001864  43.0864 317.0167 14.58455040524231
ORBCOMM FM112           
1 41184U 15081F   25303.20670595  .00001199  00000+0  29187-3 0  9999
2 41184  46.9991 277.4049 0002164 261.9630  98.1010 14.58517888525377
ORBCOMM FM113           
1 41185U 15081G   25302.97828954  .00001014  00000+0  25246-3 0  9995
2 41185  47.0009 278.8318 0002039 273.0929  86.9724 14.58510652525324
